TEVEL2-8                
1 63239U 25052AF  26068.66815442  .00019130  00000+0  69304-3 0  9993
2 63239  97.4055 324.2923 0008031 124.9191 235.2804 15.28392908 54807
STARLINK-36462          
1 67321U 26002S   26067.10493762  .00041128  00000+0  14935-2 0  9991
2 67321  42.9979 334.4660 0001265 246.6854 113.3865 15.27630310 10833
